C/2014 M3 (Catalina),e,164.9005,80.3550,93.6038,123.5918,0.0007173,0.98029807,0.0000,06/19.5170/2014,2000,g 14.0,4.0
# From MPC 91614
P/2014 M4 (PANSTARRS),e,3.3344,263.2875,148.0244,5.880230,0.0691214,0.59326054,110.6678,05/14.0/2019,2000,g 15.0,4.0
# From MPC103844
P/2014 MG4 (Spacewatch-PANSTARRS),e,9.3683,311.7520,298.9816,5.011491,0.0878524,0.26018464,189.5294,05/14.0/2019,2000,g  9.5,4.0
# From MPC 93586
C/2014 N2 (PANSTARRS),e,132.9667,143.8868,238.1080,2986,0.0000060,0.99926468,0.0000,10/07.4336/2014,2000,g 14.5,4.0
# From MPC103844
C/2014 N3 (NEOWISE),e,61.6488,19.8901,353.4078,1609,0.0000153,0.99759240,0.0000,03/12.5191/2015,2000,g  7.0,4.0
# From MPC 98560
P/2014 O3 (PANSTARRS),e,7.8095,87.6385,204.4100,7.554198,0.0474702,0.38637159,87.8633,05/14.0/2019,2000,g 10.5,4.0
# From MPC112389
C/2014 OE4 (PANSTARRS),h,12/11.8891/2016,81.3464,240.3901,65.8255,1.001730,6.246276,2000,11.0,2.0
# From MPC100578
C/2014 Q1 (PANSTARRS),e,43.0865,8.9114,120.0467,1035,0.0000296,0.99969294,0.0000,07/05.7361/2015,2000,g  8.0,4.0
# From MPC111767
C/2014 Q2 (Lovejoy),e,80.1978,95.0420,12.3778,446.2344,0.0001046,0.99710384,0.0000,01/28.8633/2015,2000,g  2.7,10.0
# From MPC 90770
C/2014 QU2 (PANSTARRS),e,124.8153,332.8764,320.2469,217.6165,0.0003070,0.98980435,0.0000,07/08.8287/2014,2000,g 15.0,4.0
# From MPC102952
C/2014 Q3 (Borisov),e,89.8693,63.1377,47.3257,27.86974,0.0066989,0.94082886,10.9786,05/14.0/2019,2000,g -0.5,20.0
# From MPC 95732
C/2014 Q6 (PANSTARRS),e,49.8059,326.5572,2.4989,4520,0.0000032,0.99906698,0.0000,01/06.3403/2015,2000,g  9.5,4.0
# From MPC 95211
C/2014 R1 (Borisov),e,9.9094,104.0229,55.7912,178.0238,0.0004149,0.99240321,0.0000,11/18.0978/2014,2000,g  6.5,8.8
# From MPC111767
C/2014 R3 (PANSTARRS),e,90.8766,334.0929,113.4653,6106,0.0000021,0.99880823,0.0000,08/08.6384/2016,2000,g  6.5,4.0
# From MPC 92982
C/2014 R4 (Gibbs),e,42.3722,279.5762,180.7398,804.1272,0.0000432,0.99773716,0.0000,10/19.7857/2014,2000,g 13.0,4.0
# From MPC 91615
P/2014 R5 (Lemmon-PANSTARRS),e,1.0882,126.5457,213.6931,4.058294,0.1205560,0.41285954,216.0872,05/14.0/2019,2000,g 15.0,4.0
# From MPC 95732
C/2014 S1 (PANSTARRS),h,10/29.6956/2013,123.7536,352.6527,288.7193,1.003039,8.126553,2000,7.0,4.0
# From MPC104790
C/2014 S2 (PANSTARRS),e,64.4317,8.0723,87.3962,174.1356,0.0004289,0.98803430,0.0000,12/09.2324/2015,2000,g 10.0,4.0
# From MPC 90770
C/2014 S3 (PANSTARRS),e,169.3276,356.1171,293.0617,85.56602,0.0012452,0.97612763,0.0000,08/12.5614/2014,2000,g 17.0,4.0
# From MPC 91615
C/2014 TG64 (Catalina),e,22.2936,50.2943,294.5404,14.79279,0.0173232,0.78197571,31.4170,05/14.0/2019,2000,g 13.0,4.0
# From MPC 92274
P/2014 U2 (Kowalski),e,7.2808,354.2382,37.6271,2.902776,0.1992892,0.61538327,330.0221,05/14.0/2019,2000,g 19.5,4.0
# From MPC 91616
C/2014 U3 (Kowalski),e,152.9345,163.5971,51.2539,942.5003,0.0000341,0.99729375,0.0000,09/04.3808/2014,2000,g 14.5,4.0
# From MPC 91616
P/2014 U4 (PANSTARRS),e,6.4365,12.0188,347.8485,3.502621,0.1503538,0.46588894,263.5231,05/14.0/2019,2000,g 18.0,4.0
# From MPC 95211
P/2014 V1 (PANSTARRS),e,22.4906,166.2215,177.5488,5.484174,0.0767427,0.53323988,120.8036,05/14.0/2019,2000,g 14.0,4.0
# From MPC 93586
P/2014 W1 (PANSTARRS),e,8.8417,246.2413,152.4323,4.457853,0.1047166,0.38910851,183.7791,05/14.0/2019,2000,g 15.5,4.0
# From MPC110493
C/2014 W2 (PANSTARRS),e,82.0265,69.9614,84.9467,677.3625,0.0000559,0.99605705,0.0000,03/09.2693/2016,2000,g  7.5,4.0
# From MPC 98561
C/2014 W3 (PANSTARRS),h,02/26.8266/2014,90.1600,286.4518,158.8811,1.005588,6.062177,2000,8.5,4.0
# From MPC105542
P/2014 W4 (PANSTARRS),e,15.2679,33.3482,68.0071,6.605873,0.0580509,0.35265164,71.3179,05/14.0/2019,2000,g 11.0,4.0
# From MPC 95211
C/2014 W6 (Catalina),h,03/18.7736/2015,53.5164,338.1817,209.9546,1.001546,3.095376,2000,10.5,4.0
# From MPC 92982
C/2014 W7 (Christensen),e,98.1706,151.2712,33.2687,11.40162,0.0256008,0.86946747,40.8152,05/14.0/2019,2000,g 16.0,4.0
# From MPC 91616
C/2014 W8 (PANSTARRS),e,41.9479,224.8446,228.0358,174.0653,0.0004292,0.97114185,0.0000,09/09.4143/2015,2000,g 11.0,4.0
# From MPC 94672
C/2014 W9 (PANSTARRS),e,10.6229,21.3202,167.9030,11.21031,0.0262590,0.85764734,40.6726,05/14.0/2019,2000,g 16.0,4.0
# From MPC107047
C/2014 W11 (PANSTARRS),e,12.7546,295.8059,225.6944,9.728823,0.0324798,0.64785507,46.3448,05/14.0/2019,2000,g 10.0,4.0
# From MPC 93587
P/2014 W12 (Gibbs),e,8.5139,299.2850,36.9249,3.517371,0.1494090,0.52371644,245.3144,05/14.0/2019,2000,g 15.0,4.0
# From MPC 94281
P/2014 X1 (Elenin),e,26.0088,61.5077,34.0675,6.215705,0.0636017,0.70889353,101.1744,05/14.0/2019,2000,g 15.0,4.0
# From MPC 96866
C/2014 XB8 (PANSTARRS),e,149.7870,37.5027,351.3392,700.0953,0.0000532,0.99570837,0.0000,04/04.7428/2015,2000,g 13.5,4.0
# From MPC100579
C/2014 Y1 (PANSTARRS),h,01/17.3018/2016,14.9238,19.4958,182.3439,1.001813,2.247866,2000,9.5,4.0
# From MPC 95733
C/2015 A1 (PANSTARRS),e,80.2545,341.0543,244.9220,20.25298,0.0108136,0.90145296,16.4658,05/14.0/2019,2000,g 14.5,4.0
# From MPC 93587
C/2015 A2 (PANSTARRS),p,08/01.8353/2015,109.1696,208.8369,5.341055,258.5042,2000,10.5,4.0
# From MPC 92275
P/2015 A3 (PANSTARRS),e,172.5281,277.1602,249.2112,7.810938,0.0451491,0.85206835,69.7034,05/14.0/2019,2000,g 20.0,4.0
# From MPC 99270
P/2015 B1 (PANSTARRS),e,18.0192,353.1559,188.6429,9.512910,0.0335919,0.37093555,44.7833,05/14.0/2019,2000,g  8.5,4.0
# From MPC108592
C/2015 B2 (PANSTARRS),h,05/06.4256/2016,105.0396,341.8890,284.7310,1.000540,3.368016,2000,9.5,4.0
# From MPC109141
P/2015 B4 (Lemmon-PANSTARRS),e,1.7604,266.0268,227.5613,8.548368,0.0394348,0.56198782,61.3106,05/14.0/2019,2000,g 11.0,4.0
# From MPC101096
P/2015 C1 (TOTAS-Gibbs),e,13.8819,348.8417,178.4350,6.592672,0.0582253,0.56057284,85.8720,05/14.0/2019,2000,g 12.5,4.0
# From MPC 95211
C/2015 C2 (SWAN),e,94.4915,49.5620,333.9969,357.7354,0.0001457,0.99802344,0.0000,03/04.1119/2015,2000,g 14.0,4.0
# From MPC 98561
C/2015 D2 (PANSTARRS),e,31.9089,162.8208,292.5873,12.83597,0.0214319,0.55995371,44.0371,05/14.0/2019,2000,g  8.0,4.0
# From MPC110080
C/2015 D3 (PANSTARRS),h,05/03.2251/2016,128.5346,157.0151,3.0030,1.003634,8.151111,2000,5.5,4.0
# From MPC 94672
C/2015 D4 (Borisov),e,77.3572,305.5392,314.7346,78.50272,0.0014170,0.98902360,0.0000,10/28.2283/2014,2000,g 12.0,4.0
# From MPC109141
P/2015 D5 (Kowalski),e,20.4932,74.0610,40.0516,8.987290,0.0365815,0.48965151,68.2427,05/14.0/2019,2000,g  9.0,4.0
# From MPC 96866
P/2015 D6 (Lemmon-PANSTARRS),e,20.2192,46.1884,125.3738,7.161592,0.0514268,0.36312435,72.2303,05/14.0/2019,2000,g 10.5,4.0
# From MPC112390
C/2015 ER61 (PANSTARRS),e,6.3492,235.2187,68.1927,431.1102,0.0001101,0.99758415,0.0000,05/10.1102/2017,2000,g 11.0,2.0
# From MPEC 2018-BF5
C/2015 E61-B (PANSTARRS),e,6.3508,235.2538,68.2820,986.5614,0.0000318,0.99894258,0.0000,05/10.0878/2017,2000,g 13.5,2.0
# From MPC109142
P/2015 F1 (PANSTARRS),e,2.8031,40.4190,187.3635,3.524233,0.1489729,0.27842119,226.3709,05/14.0/2019,2000,g 12.5,4.0
# From MPC 95733
C/2015 F2 (Polonia),e,28.7321,262.4420,352.1867,39.01127,0.0040450,0.96893307,5.9689,05/14.0/2019,2000,g 16.5,4.0
# From MPC 96279
C/2015 F3 (SWAN),e,73.4739,31.6718,57.4670,182.7700,0.0003989,0.99543464,0.0000,03/07.8640/2015,2000,g 14.5,4.0
# From MPC102952
C/2015 F4 (Jacques),e,48.7925,285.9207,36.3102,115.6803,0.0007922,0.98582030,0.0000,08/11.3764/2015,2000,g 11.0,4.0
# From MPC 95212
C/2015 F5 (SWAN-Xingming),e,149.3563,287.7504,13.4607,15.54969,0.0160739,0.97757906,0.0000,03/27.9816/2015,2000,g 15.5,4.0
# From MPC102096
C/2015 GX (PANSTARRS),e,90.2750,235.5241,108.8546,16.17266,0.0151542,0.87848957,20.5456,05/14.0/2019,2000,g 14.0,4.0
# From MPC109142
C/2015 G2 (MASTER),h,05/24.2327/2015,147.6494,110.2179,257.6485,1.000556,0.781176,2000,11.0,4.0
# From MPC 95733
C/2015 H1 (Bressi),e,140.6410,325.8672,21.9020,31.97394,0.0054514,0.93948486,8.2247,05/14.0/2019,2000,g 13.5,4.0
# From MPC112390
C/2015 H2 (PANSTARRS),h,09/13.9643/2016,33.6844,350.6974,287.9780,1.005163,4.969948,2000,7.5,4.0
# From MPC 10028
P/2015 HG16 (PANSTARRS),e,18.8823,59.3115,47.2993,4.759667,0.0949159,0.34699511,169.3862,05/14.0/2019,2000,g 12.5,4.0
# From MPC100579
C/2015 J1 (PANSTARRS),h,06/29.0299/2014,94.9974,220.0026,315.5857,1.000310,6.033696,2000,8.5,4.0
# From MPC101096
C/2015 J2 (PANSTARRS),e,17.2783,56.7353,203.8472,287.6170,0.0002021,0.98495671,0.0000,09/09.8966/2015,2000,g 10.0,4.0
# From MPC 95733
P/2015 J3 (NEOWISE),e,8.1298,111.3537,129.4105,3.350152,0.1607338,0.55459210,246.0452,05/14.0/2019,2000,g 16.5,4.0
# From MPC101096
C/2015 K1 (MASTER),e,29.3506,5.1117,280.2436,191.8368,0.0003709,0.98668403,0.0000,10/14.5866/2014,2000,g  9.0,4.0
# From MPC 95733
C/2015 K2 (PANSTARRS),e,29.1087,223.6975,15.9044,299.1970,0.0001904,0.99512188,0.0000,06/09.1016/2015,2000,g 20.0,4.0
# From MPC 95733
C/2015 K4 (PANSTARRS),h,05/01.8322/2015,80.2787,250.7131,357.6811,1.000715,2.014284,2000,15.0,4.0
# From MPC 95213
P/2015 K5 (PANSTARRS),e,39.9523,134.2140,106.2068,6.713844,0.0566562,0.55450482,81.4193,05/14.0/2019,2000,g 13.5,4.0
# From MPC111767
C/2015 LC2 (PANSTARRS),h,05/02.1572/2015,93.7147,223.5766,341.9866,1.000267,5.901825,2000,8.0,4.0
# From MPC 95734
C/2015 M1 (PANSTARRS),e,57.3270,100.1819,164.1170,430.7491,0.0001102,0.99513637,0.0000,05/15.9265/2015,2000,g 16.5,4.0
# From MPC107684
P/2015 M2 (PANSTARRS),e,3.9738,86.5764,224.9882,7.217674,0.0508286,0.18082401,68.5596,05/14.0/2019,2000,g  8.5,4.0
# From MPC102097
C/2015 M3 (PANSTARRS),e,65.8941,143.0416,123.8218,138.1173,0.0006072,0.97426608,0.0000,08/26.4198/2015,2000,g 12.0,4.0
# From MPC112390
C/2015 O1 (PANSTARRS),h,02/19.1536/2018,127.2159,299.8538,89.6144,1.000135,3.730079,2000,6.5,4.0
# From MPC 95734
C/2015 P3 (SWAN),e,58.2025,87.9845,133.0534,245.7160,0.0002559,0.99707381,0.0000,07/27.6907/2015,2000,g 15.5,4.0
# From MPC 99271
P/2015 P4 (PANSTARRS),e,8.7175,104.7613,280.6562,6.055330,0.0661451,0.58365364,80.1271,05/14.0/2019,2000,g 14.0,4.0
# From MPC102952
